ONEWEB-0665             
1 55825U 23029AF  24220.56831936  .00000270  00000+0  69379-3 0  9997
2 55825  87.8926  64.7074 0001604  74.0771 286.0536 13.14501005 70256
ONEWEB-0666             
1 55826U 23029AG  24220.48006718  .00000079  00000+0  16118-3 0  9991
2 55826  87.9185  49.4897 0002183  94.3376 265.8006 13.20770858 71560
ONEWEB-0667             
1 55827U 23029AH  24220.47374975  .00000105  00000+0  22737-3 0  9998
2 55827  87.9184  49.4243 0001779  77.8260 282.3072 13.20772250 71557
ONEWEB-0669             
1 55828U 23029AJ  24220.54478196  .00000143  00000+0  32096-3 0  9998
2 55828  87.9184  49.4475 0002571  84.4190 275.7236 13.20771817 71569
ONEWEB-0670             
1 55829U 23029AK  24220.54613951  .00000100  00000+0  23551-3 0  9998
2 55829  87.8926  64.7192 0001861  68.3728 291.7599 13.14503310 70279
ONEWEB-0671             
1 55830U 23029AL  24220.50320563  .00000126  00000+0  28163-3 0  9992
2 55830  87.9110  80.0120 0001768  72.6905 287.4421 13.19725348 69388
ONEWEB-0672             
1 55831U 23029AM  24220.54005550  .00000114  00000+0  24780-3 0  9991
2 55831  87.9185  49.4324 0002053  94.7449 265.3919 13.20772384 71566
ONEWEB-0673             
1 55832U 23029AN  24220.10042110 -.00000198  00000+0 -52713-3 0  9998
2 55832  87.9109  80.0592 0001719  73.4198 286.7123 13.19725468 69339
